[{"OBJECT_NAME":"GAOFEN-12 03","OBJECT_ID":"2022-069A","EPOCH":"2026-03-09T22:26:41.020800","MEAN_MOTION":14.79856399,"ECCENTRICITY":0.00023242,"INCLINATION":97.8403,"RA_OF_ASC_NODE":319.2501,"ARG_OF_PERICENTER":91.8845,"MEAN_ANOMALY":268.2634,"EPHEMERIS_TYPE":0,"CLASSIFICATION_TYPE":"U","NORAD_CAT_ID":52912,"ELEMENT_SET_NO":999,"REV_AT_EPOCH":19993,"BSTAR":0.00029245071,"MEAN_MOTION_DOT":2.154e-5,"MEAN_MOTION_DDOT":0},{"OBJECT_NAME":"CZ-6A DEB","OBJECT_ID":"2024-140YQ","EPOCH":"2026-03-09T13:42:01.530720","MEAN_MOTION":14.52467097,"ECCENTRICITY":0.0128638,"INCLINATION":88.821,"RA_OF_ASC_NODE":270.12,"ARG_OF_PERICENTER":286.7938,"MEAN_ANOMALY":71.919,"EPHEMERIS_TYPE":0,"CLASSIFICATION_TYPE":"U","NORAD_CAT_ID":61423,"ELEMENT_SET_NO":999,"REV_AT_EPOCH":8185,"BSTAR":0.00044863,"MEAN_MOTION_DOT":2.056e-5,"MEAN_MOTION_DDOT":0}]
